*******************************************************************************
Ephemeris / WWW_USER Mon Mar 10 07:37:27 2025 Pasadena, USA      / Horizons    
*******************************************************************************
Target body name: 584778 (2017 RG16)              {source: JPL#32}
Center body name: Earth (399)                     {source: DE441}
Center-site name: Mauna Kea
*******************************************************************************
Start time      : A.D. 2019-Jan-08 04:08:00.0000 UT      
Stop  time      : A.D. 2019-Jan-08 16:48:00.0000 UT      
Step-size       : 1 minutes
*******************************************************************************
Target pole/equ : undefined
Target radii    : undefined                                                    
Center geodetic : 204.5278, 19.8260847, 4.21024   {E-lon(deg),Lat(deg),Alt(km)}
Center cylindric: 204.5278, 6006.35451, 2151.0229 {E-lon(deg),Dxy(km),Dz(km)}
Center pole/equ : ITRF93                          {East-longitude positive}
Center radii    : 6378.137, 6378.137, 6356.752 km {Equator_a, b, pole_c}       
Target primary  : Sun
Vis. interferer : MOON (R_eq= 1737.400) km        {source: DE441}
Rel. light bend : Sun                             {source: DE441}
Rel. lght bnd GM: 1.3271E+11 km^3/s^2                                          
Small-body perts: Yes                             {source: SB441-N16}
Atmos refraction: NO (AIRLESS)
RA format       : HMS
Time format     : CAL 
Calendar mode   : Mixed Julian/Gregorian
RTS-only print  : NO       
EOP file        : eop.250307.p250603                                           
EOP coverage    : DATA-BASED 1962-JAN-20 TO 2025-MAR-07. PREDICTS-> 2025-JUN-02
Units conversion: 1 au= 149597870.700 km, c= 299792.458 km/s, 1 day= 86400.0 s 
Table cut-offs 1: Elevation (-90.0deg=NO ),Airmass (>38.000=NO), Daylight (YES)
Table cut-offs 2: Solar elongation (  0.0,180.0=NO ),Local Hour Angle( 0.0=NO )
Table cut-offs 3: RA/DEC angular rate (     0.0=NO )                           
*******************************************************************************
Initial IAU76/J2000 heliocentric ecliptic osculating elements (au, days, deg.):
  EPOCH=  2458734.5 ! 2019-Sep-08.00 (TDB)         Residual RMS= .14786        
   EC= .9085798704456644   QR= 7.106644157383132   TP= 2457926.6828443832      
   OM= .547367620295521    W=  323.0265763955561   IN= 74.86683883750447       
  Equivalent ICRF heliocentric cartesian coordinates (au, au/d):
   X= 8.360714527577798E+00  Y=-2.241293784086399E-01  Z= 2.069107023705337E+00
  VX= 1.416407206608659E-03 VY=-1.132497676729848E-03 VZ= 7.848232694960624E-03
Asteroid physical parameters (km, seconds, rotational period in hours):        
   GM= n.a.                RAD= n.a.               ROTPER= n.a.                
   H= 11.32                G= .150                 B-V= n.a.                   
                           ALBEDO= n.a.            STYP= n.a.                  
*******************************************************************************
 Date__(UT)__HR:MN     R.A._________(ICRF)_________DEC
******************************************************
$$SOE
 2019-Jan-08 12:20     23 37 29.832372 -01 35 07.74977
 2019-Jan-08 12:21     23 37 29.839064 -01 35 07.56533
 2019-Jan-08 12:22     23 37 29.845756 -01 35 07.38090
 2019-Jan-08 12:23     23 37 29.852449 -01 35 07.19646
 2019-Jan-08 12:24     23 37 29.859143 -01 35 07.01203
 2019-Jan-08 12:25     23 37 29.865838 -01 35 06.82759
 2019-Jan-08 12:26     23 37 29.872534 -01 35 06.64316
 2019-Jan-08 12:27     23 37 29.879231 -01 35 06.45872
 2019-Jan-08 12:28     23 37 29.885929 -01 35 06.27429
 2019-Jan-08 12:29     23 37 29.892627 -01 35 06.08985
 2019-Jan-08 12:30     23 37 29.899327 -01 35 05.90541
 2019-Jan-08 12:31     23 37 29.906028 -01 35 05.72098
 2019-Jan-08 12:32     23 37 29.912729 -01 35 05.53654
 2019-Jan-08 12:33     23 37 29.919431 -01 35 05.35210
 2019-Jan-08 12:34     23 37 29.926135 -01 35 05.16766
 2019-Jan-08 12:35     23 37 29.932839 -01 35 04.98323
 2019-Jan-08 12:36     23 37 29.939544 -01 35 04.79879
 2019-Jan-08 12:37     23 37 29.946250 -01 35 04.61435
 2019-Jan-08 12:38     23 37 29.952957 -01 35 04.42991
 2019-Jan-08 12:39     23 37 29.959665 -01 35 04.24547
 2019-Jan-08 12:40     23 37 29.966373 -01 35 04.06103
 2019-Jan-08 12:41     23 37 29.973083 -01 35 03.87659
 2019-Jan-08 12:42     23 37 29.979793 -01 35 03.69214
 2019-Jan-08 12:43     23 37 29.986505 -01 35 03.50770
 2019-Jan-08 12:44     23 37 29.993217 -01 35 03.32326
 2019-Jan-08 12:45     23 37 29.999930 -01 35 03.13882
 2019-Jan-08 12:46     23 37 30.006643 -01 35 02.95438
 2019-Jan-08 12:47     23 37 30.013358 -01 35 02.76993
 2019-Jan-08 12:48     23 37 30.020074 -01 35 02.58549
 2019-Jan-08 12:49     23 37 30.026790 -01 35 02.40105
 2019-Jan-08 12:50     23 37 30.033507 -01 35 02.21660
 2019-Jan-08 12:51     23 37 30.040225 -01 35 02.03216
 2019-Jan-08 12:52     23 37 30.046944 -01 35 01.84771
 2019-Jan-08 12:53     23 37 30.053663 -01 35 01.66327
 2019-Jan-08 12:54     23 37 30.060384 -01 35 01.47882
 2019-Jan-08 12:55     23 37 30.067105 -01 35 01.29438
 2019-Jan-08 12:56     23 37 30.073827 -01 35 01.10993
 2019-Jan-08 12:57     23 37 30.080550 -01 35 00.92548
 2019-Jan-08 12:58     23 37 30.087273 -01 35 00.74104
 2019-Jan-08 12:59     23 37 30.093998 -01 35 00.55659
 2019-Jan-08 13:00     23 37 30.100723 -01 35 00.37214
 2019-Jan-08 13:01     23 37 30.107449 -01 35 00.18769
 2019-Jan-08 13:02     23 37 30.114176 -01 35 00.00325
 2019-Jan-08 13:03     23 37 30.120903 -01 34 59.81880
 2019-Jan-08 13:04     23 37 30.127631 -01 34 59.63435
 2019-Jan-08 13:05     23 37 30.134360 -01 34 59.44990
 2019-Jan-08 13:06     23 37 30.141090 -01 34 59.26545
 2019-Jan-08 13:07     23 37 30.147821 -01 34 59.08100
 2019-Jan-08 13:08     23 37 30.154552 -01 34 58.89655
 2019-Jan-08 13:09     23 37 30.161284 -01 34 58.71210
 2019-Jan-08 13:10     23 37 30.168016 -01 34 58.52765
 2019-Jan-08 13:11     23 37 30.174750 -01 34 58.34319
 2019-Jan-08 13:12     23 37 30.181484 -01 34 58.15874
 2019-Jan-08 13:13     23 37 30.188219 -01 34 57.97429
 2019-Jan-08 13:14     23 37 30.194954 -01 34 57.78984
 2019-Jan-08 13:15     23 37 30.201691 -01 34 57.60539
 2019-Jan-08 13:16     23 37 30.208428 -01 34 57.42093
 2019-Jan-08 13:17     23 37 30.215165 -01 34 57.23648
 2019-Jan-08 13:18     23 37 30.221904 -01 34 57.05203
 2019-Jan-08 13:19     23 37 30.228643 -01 34 56.86757
 2019-Jan-08 13:20     23 37 30.235382 -01 34 56.68312
 2019-Jan-08 13:21     23 37 30.242123 -01 34 56.49866
 2019-Jan-08 13:22     23 37 30.248864 -01 34 56.31421
 2019-Jan-08 13:23     23 37 30.255606 -01 34 56.12975
 2019-Jan-08 13:24     23 37 30.262348 -01 34 55.94530
 2019-Jan-08 13:25     23 37 30.269091 -01 34 55.76084
 2019-Jan-08 13:26     23 37 30.275835 -01 34 55.57638
 2019-Jan-08 13:27     23 37 30.282579 -01 34 55.39193
 2019-Jan-08 13:28     23 37 30.289324 -01 34 55.20747
 2019-Jan-08 13:29     23 37 30.296069 -01 34 55.02301
 2019-Jan-08 13:30     23 37 30.302816 -01 34 54.83856
 2019-Jan-08 13:31     23 37 30.309562 -01 34 54.65410
 2019-Jan-08 13:32     23 37 30.316310 -01 34 54.46964
 2019-Jan-08 13:33     23 37 30.323058 -01 34 54.28518
 2019-Jan-08 13:34     23 37 30.329806 -01 34 54.10072
 2019-Jan-08 13:35     23 37 30.336556 -01 34 53.91626
 2019-Jan-08 13:36     23 37 30.343306 -01 34 53.73180
 2019-Jan-08 13:37     23 37 30.350056 -01 34 53.54734
 2019-Jan-08 13:38     23 37 30.356807 -01 34 53.36288
 2019-Jan-08 13:39     23 37 30.363559 -01 34 53.17842
 2019-Jan-08 13:40     23 37 30.370311 -01 34 52.99396
 2019-Jan-08 13:41     23 37 30.377063 -01 34 52.80950
 2019-Jan-08 13:42     23 37 30.383817 -01 34 52.62504
 2019-Jan-08 13:43     23 37 30.390571 -01 34 52.44058
 2019-Jan-08 13:44     23 37 30.397325 -01 34 52.25612
 2019-Jan-08 13:45     23 37 30.404080 -01 34 52.07165
 2019-Jan-08 13:46     23 37 30.410835 -01 34 51.88719
 2019-Jan-08 13:47     23 37 30.417591 -01 34 51.70273
 2019-Jan-08 13:48     23 37 30.424348 -01 34 51.51826
 2019-Jan-08 13:49     23 37 30.431105 -01 34 51.33380
 2019-Jan-08 13:50     23 37 30.437863 -01 34 51.14934
 2019-Jan-08 13:51     23 37 30.444621 -01 34 50.96487
 2019-Jan-08 13:52     23 37 30.451379 -01 34 50.78041
 2019-Jan-08 13:53     23 37 30.458138 -01 34 50.59594
 2019-Jan-08 13:54     23 37 30.464898 -01 34 50.41148
 2019-Jan-08 13:55     23 37 30.471658 -01 34 50.22701
 2019-Jan-08 13:56     23 37 30.478419 -01 34 50.04255
 2019-Jan-08 13:57     23 37 30.485180 -01 34 49.85808
 2019-Jan-08 13:58     23 37 30.491941 -01 34 49.67361
 2019-Jan-08 13:59     23 37 30.498703 -01 34 49.48915
 2019-Jan-08 14:00     23 37 30.505466 -01 34 49.30468
 2019-Jan-08 14:01     23 37 30.512229 -01 34 49.12021
 2019-Jan-08 14:02     23 37 30.518992 -01 34 48.93574
 2019-Jan-08 14:03     23 37 30.525756 -01 34 48.75128
 2019-Jan-08 14:04     23 37 30.532520 -01 34 48.56681
 2019-Jan-08 14:05     23 37 30.539285 -01 34 48.38234
 2019-Jan-08 14:06     23 37 30.546050 -01 34 48.19787
 2019-Jan-08 14:07     23 37 30.552816 -01 34 48.01340
 2019-Jan-08 14:08     23 37 30.559582 -01 34 47.82893
 2019-Jan-08 14:09     23 37 30.566348 -01 34 47.64446
 2019-Jan-08 14:10     23 37 30.573115 -01 34 47.45999
 2019-Jan-08 14:11     23 37 30.579882 -01 34 47.27552
 2019-Jan-08 14:12     23 37 30.586650 -01 34 47.09105
 2019-Jan-08 14:13     23 37 30.593418 -01 34 46.90658
 2019-Jan-08 14:14     23 37 30.600186 -01 34 46.72211
 2019-Jan-08 14:15     23 37 30.606955 -01 34 46.53764
 2019-Jan-08 14:16     23 37 30.613724 -01 34 46.35317
 2019-Jan-08 14:17     23 37 30.620493 -01 34 46.16869
 2019-Jan-08 14:18     23 37 30.627263 -01 34 45.98422
 2019-Jan-08 14:19     23 37 30.634034 -01 34 45.79975
 2019-Jan-08 14:20     23 37 30.640804 -01 34 45.61528
 2019-Jan-08 14:21     23 37 30.647575 -01 34 45.43080
 2019-Jan-08 14:22     23 37 30.654346 -01 34 45.24633
